[
    {
        "Altitude(m)": 710830.5465941451,
        "Argument of Periapsis(deg)": 0.007973084830638947,
        "Eccentricity": 0.0,
        "Inclination(deg)": 45.0,
        "Latitude(deg)": -27.69704135376384,
        "Longitude(deg)": 35.9427077525258,
        "Mean Anomaly(deg)": -139.19944834676346,
        "RAAN(deg)": 284.99247364097926,
        "Satellite Name": "Constellation 1 1267",
        "Satellite Number": 1267,
        "Semi-Major Axis(m)": 7083131.272910544,
        "Time(s)": 133
    },
    {
        "Altitude(m)": 710844.3818767575,
        "Argument of Periapsis(deg)": 0.008033032836884352,
        "Eccentricity": 0.0,
        "Inclination(deg)": 45.0,
        "Latitude(deg)": -27.733752159925626,
        "Longitude(deg)": 35.993118837950554,
        "Mean Anomaly(deg)": -139.1387472065135,
        "RAAN(deg)": 284.9924170518137,
        "Satellite Name": "Constellation 1 1267",
        "Satellite Number": 1267,
        "Semi-Major Axis(m)": 7083131.272910544,
        "Time(s)": 134
    },
    {
        "Altitude(m)": 710858.2161017463,
        "Argument of Periapsis(deg)": 0.008092980843129758,
        "Eccentricity": 0.0,
        "Inclination(deg)": 45.0,
        "Latitude(deg)": -27.77044119825254,
        "Longitude(deg)": 36.043566316704975,
        "Mean Anomaly(deg)": -139.07804606626357,
        "RAAN(deg)": 284.9923604626481,
        "Satellite Name": "Constellation 1 1267",
        "Satellite Number": 1267,
        "Semi-Major Axis(m)": 7083131.272910544,
        "Time(s)": 135
    },
    {
        "Altitude(m)": 710872.049221197,
        "Argument of Periapsis(deg)": 0.008152928849375162,
        "Eccentricity": 0.0,
        "Inclination(deg)": 45.0,
        "Latitude(deg)": -27.807108421310353,
        "Longitude(deg)": 36.094050248378956,
        "Mean Anomaly(deg)": -139.01734492601378,
        "RAAN(deg)": 284.9923038734825,
        "Satellite Name": "Constellation 1 1267",
        "Satellite Number": 1267,
        "Semi-Major Axis(m)": 7083131.272910544,
        "Time(s)": 136
    },
    {
        "Altitude(m)": 710885.8811871851,
        "Argument of Periapsis(deg)": 0.008212876855620568,
        "Eccentricity": 0.0,
        "Inclination(deg)": 45.0,
        "Latitude(deg)": -27.843753781596792,
        "Longitude(deg)": 36.14457069254011,
        "Mean Anomaly(deg)": -138.95664378576382,
        "RAAN(deg)": 284.99224728431693,
        "Satellite Name": "Constellation 1 1267",
        "Satellite Number": 1267,
        "Semi-Major Axis(m)": 7083131.272910544,
        "Time(s)": 137
    },
    {
        "Altitude(m)": 710899.7119517727,
        "Argument of Periapsis(deg)": 0.008272824861865974,
        "Eccentricity": 0.0,
        "Inclination(deg)": 45.0,
        "Latitude(deg)": -27.880377231540734,
        "Longitude(deg)": 36.19512770873184,
        "Mean Anomaly(deg)": -138.89594264551394,
        "RAAN(deg)": 284.9921906951514,
        "Satellite Name": "Constellation 1 1267",
        "Satellite Number": 1267,
        "Semi-Major Axis(m)": 7083131.272910544,
        "Time(s)": 138
    },
    {
        "Altitude(m)": 710913.541467022,
        "Argument of Periapsis(deg)": 0.00833277286811138,
        "Eccentricity": 0.0,
        "Inclination(deg)": 45.0,
        "Latitude(deg)": -27.916978723502915,
        "Longitude(deg)": 36.24572135647447,
        "Mean Anomaly(deg)": -138.835241505264,
        "RAAN(deg)": 284.9921341059858,
        "Satellite Name": "Constellation 1 1267",
        "Satellite Number": 1267,
        "Semi-Major Axis(m)": 7083131.272910544,
        "Time(s)": 139
    },
    {
        "Altitude(m)": 710927.3696849915,
        "Argument of Periapsis(deg)": 0.008392720874356788,
        "Eccentricity": 0.0,
        "Inclination(deg)": 45.0,
        "Latitude(deg)": -27.95355820977524,
        "Longitude(deg)": 36.2963516952635,
        "Mean Anomaly(deg)": -138.77454036501416,
        "RAAN(deg)": 284.99207751682025,
        "Satellite Name": "Constellation 1 1267",
        "Satellite Number": 1267,
        "Semi-Major Axis(m)": 7083131.272910544,
        "Time(s)": 140
    },
    {
        "Altitude(m)": 710941.1965577265,
        "Argument of Periapsis(deg)": 0.008452668880602192,
        "Eccentricity": 0.0,
        "Inclination(deg)": 45.0,
        "Latitude(deg)": -27.990115642581415,
        "Longitude(deg)": 36.34701861647303,
        "Mean Anomaly(deg)": -138.7138392247642,
        "RAAN(deg)": 284.9920209276547,
        "Satellite Name": "Constellation 1 1267",
        "Satellite Number": 1267,
        "Semi-Major Axis(m)": 7083131.272910544,
        "Time(s)": 141
    },
    {
        "Altitude(m)": 710955.0220372687,
        "Argument of Periapsis(deg)": 0.008512616886847598,
        "Eccentricity": 0.0,
        "Inclination(deg)": 45.0,
        "Latitude(deg)": -28.02665097407545,
        "Longitude(deg)": 36.397722515742416,
        "Mean Anomaly(deg)": -138.6531380845143,
        "RAAN(deg)": 284.9919643384891,
        "Satellite Name": "Constellation 1 1267",
        "Satellite Number": 1267,
        "Semi-Major Axis(m)": 7083131.272910544,
        "Time(s)": 142
    },
    {
        "Altitude(m)": 710968.8460756545,
        "Argument of Periapsis(deg)": 0.008572564893093004,
        "Eccentricity": 0.0,
        "Inclination(deg)": 45.0,
        "Latitude(deg)": -28.063164156343525,
        "Longitude(deg)": 36.44846328439462,
        "Mean Anomaly(deg)": -138.59243694426445,
        "RAAN(deg)": 284.9919077493235,
        "Satellite Name": "Constellation 1 1267",
        "Satellite Number": 1267,
        "Semi-Major Axis(m)": 7083131.272910544,
        "Time(s)": 143
    },
    {
        "Altitude(m)": 710982.6686249137,
        "Argument of Periapsis(deg)": 0.008632512899338408,
        "Eccentricity": 0.0,
        "Inclination(deg)": 45.0,
        "Latitude(deg)": -28.099655141402664,
        "Longitude(deg)": 36.4992409818233,
        "Mean Anomaly(deg)": -138.53173580401452,
        "RAAN(deg)": 284.991851160158,
        "Satellite Name": "Constellation 1 1267",
        "Satellite Number": 1267,
        "Semi-Major Axis(m)": 7083131.272910544,
        "Time(s)": 144
    },
    {
        "Altitude(m)": 710996.4896370721,
        "Argument of Periapsis(deg)": 0.008692460905583814,
        "Eccentricity": 0.0,
        "Inclination(deg)": 45.0,
        "Latitude(deg)": -28.136123881200945,
        "Longitude(deg)": 36.55005566739528,
        "Mean Anomaly(deg)": -138.47103466376458,
        "RAAN(deg)": 284.9917945709924,
        "Satellite Name": "Constellation 1 1267",
        "Satellite Number": 1267,
        "Semi-Major Axis(m)": 7083131.272910544,
        "Time(s)": 145
    },
    {
        "Altitude(m)": 711010.3090641488,
        "Argument of Periapsis(deg)": 0.00875240891182922,
        "Eccentricity": 0.0,
        "Inclination(deg)": 45.0,
        "Latitude(deg)": -28.172570327617358,
        "Longitude(deg)": 36.60090740044995,
        "Mean Anomaly(deg)": -138.4103335235147,
        "RAAN(deg)": 284.9917379818269,
        "Satellite Name": "Constellation 1 1267",
        "Satellite Number": 1267,
        "Semi-Major Axis(m)": 7083131.272910544,
        "Time(s)": 146
    },
    {
        "Altitude(m)": 711024.1268581583,
        "Argument of Periapsis(deg)": 0.008812356918074627,
        "Eccentricity": 0.0,
        "Inclination(deg)": 45.0,
        "Latitude(deg)": -28.208994432462063,
        "Longitude(deg)": 36.6517962402991,
        "Mean Anomaly(deg)": -138.3496323832648,
        "RAAN(deg)": 284.99168139266123,
        "Satellite Name": "Constellation 1 1267",
        "Satellite Number": 1267,
        "Semi-Major Axis(m)": 7083131.272910544,
        "Time(s)": 147
    },
    {
        "Altitude(m)": 711037.9429711077,
        "Argument of Periapsis(deg)": 0.008872304924320031,
        "Eccentricity": 0.0,
        "Inclination(deg)": 45.0,
        "Latitude(deg)": -28.245396147476164,
        "Longitude(deg)": 36.70272207812944,
        "Mean Anomaly(deg)": -138.28893124301496,
        "RAAN(deg)": 284.99162480349565,
        "Satellite Name": "Constellation 1 1267",
        "Satellite Number": 1267,
        "Semi-Major Axis(m)": 7083131.272910544,
        "Time(s)": 148
    },
    {
        "Altitude(m)": 711051.7573550022,
        "Argument of Periapsis(deg)": 0.008932252930565437,
        "Eccentricity": 0.0,
        "Inclination(deg)": 45.0,
        "Latitude(deg)": -28.281775424330945,
        "Longitude(deg)": 36.75368530938963,
        "Mean Anomaly(deg)": -138.228230102765,
        "RAAN(deg)": 284.99156821433013,
        "Satellite Name": "Constellation 1 1267",
        "Satellite Number": 1267,
        "Semi-Major Axis(m)": 7083131.272910544,
        "Time(s)": 149
    },
    {
        "Altitude(m)": 711065.5699618452,
        "Argument of Periapsis(deg)": 0.008992200936810843,
        "Eccentricity": 0.0,
        "Inclination(deg)": 45.0,
        "Latitude(deg)": -28.318132214629014,
        "Longitude(deg)": 36.80468582520798,
        "Mean Anomaly(deg)": -138.16752896251515,
        "RAAN(deg)": 284.99151162516455,
        "Satellite Name": "Constellation 1 1267",
        "Satellite Number": 1267,
        "Semi-Major Axis(m)": 7083131.272910544,
        "Time(s)": 150
    },
    {
        "Altitude(m)": 711079.3807436279,
        "Argument of Periapsis(deg)": 0.009052148943056249,
        "Eccentricity": 0.0,
        "Inclination(deg)": 45.0,
        "Latitude(deg)": -28.354466469903656,
        "Longitude(deg)": 36.855723684780386,
        "Mean Anomaly(deg)": -138.1068278222652,
        "RAAN(deg)": 284.991455035999,
        "Satellite Name": "Constellation 1 1267",
        "Satellite Number": 1267,
        "Semi-Major Axis(m)": 7083131.272910544,
        "Time(s)": 151
    }
]